GALAXY 25 (G-25)        
1 24812C 97026A   23198.00000000 -.00000032  00000-0  00000-0 0  1981
2 24812   4.6826  79.6929 0013087  23.3849 352.3392  0.99041889    11
INTELSAT 5 (IS-5)   [PM]
1 24916C 97046A   23181.00000000  .00000034  00000-0  00000-0 0  1813
2 24916   8.0377  58.2842 0005152  63.9991 321.6585  1.00275698    17
INTELSAT 5 (IS-5)       
1 24916C 97046A   23198.00000000  .00000034  00000-0  00000-0 0  1989
2 24916   8.0728  58.1810 0004308  74.8946 327.6091  1.00276413    18
GALAXY 11 (G-11)        
1 26038C 99071A   23197.90135417 -.00000072  00000-0  00000-0 0  1977
2 26038   3.9998  83.3130 0002029 104.0109 338.5154  1.00270483    10
INTELSAT 9 (IS-9)   [PM]
1 26451C 00043A   23191.77101852 -.00000191  00000-0  00000-0 0  1918
2 26451   8.0444  58.4120 0004371  17.1196  80.4662  1.00268710    12
INTELSAT 9 (IS-9)       
1 26451C 00043A   23198.00000000 -.00000191  00000-0  00000-0 0  1981
2 26451   8.0572  58.3606 0001633 281.1970 264.9596  1.00277811    10
INTELSAT 1R (IS-1R)     
1 26608C 00072A   23197.90135417 -.00000047  00000-0  00000-0 0  1975
2 26608   5.4590  75.9650 0001936 108.7755 231.2960  1.00271921    18
INTELSAT 10 (IS-10)     
1 26766C 01019A   23198.00000000  .00000127  00000-0  00000-0 0  1982
2 26766   6.5167  69.8731 0004133  38.8479   3.6179  1.00275894    11
INTELSAT 10 (IS-10) [PM]
1 26766C 01019A   23199.70925926  .00000127  00000-0  00000-0 0  1994
2 26766   6.5186  69.8855 0002105  69.6896 229.8257  1.00267199    19
INTELSAT 901            
1 26824C 01024A   23198.00000000 -.00000137  00000-0  00000-0 0  1985
2 26824   0.0547 237.9674 0000791 267.7089 121.3690  1.00271026    16
INTELSAT 902        [PM]
1 26900C 01039A   23197.80104167 -.00000192  00000-0  00000-0 0  1972
2 26900   3.4031  84.6032 0002611  20.7984  67.2312  1.00272487    16
INTELSAT 902            
1 26900C 01039A   23198.00000000 -.00000192  00000-0  00000-0 0  1987
2 26900   3.4036  84.6015 0001989  15.1073 144.7418  1.00273118    16
INTELSAT 904            
1 27380C 02007A   23198.00000000 -.00000123  00000-0  00000-0 0  1980
2 27380   4.2290  81.7027 0002049  21.7195 161.6364  1.00272603    13
INTELSAT 904        [PM]
1 27380C 02007A   23202.84138889 -.00000123  00000-0  00000-0 0  2021
2 27380   4.2355  81.6509 0003051  25.1554 105.9264  1.00271437    14
INTELSAT 905        [PM]
1 27438C 02027A   23191.65394676 -.00000094  00000-0  00000-0 0  1915
2 27438   4.0350  82.4007 0003136  21.0680  35.7464  1.00272976    13
INTELSAT 905            
1 27438C 02027A   23198.00000000 -.00000094  00000-0  00000-0 0  1983
2 27438   4.0524  82.3775 0001978  14.0953 173.5874  1.00273055    19
GALAXY 3C (G-3C)        
1 27445C 02030A   23197.90135417 -.00000062  00000-0  00000-0 0  1978
2 27445   0.9708  90.4547 0001991 114.2257 319.3949  1.00271999    16
INTELSAT 906        [PM]
1 27513C 02041A   23188.03730324  .00000105  00000-0  00000-0 0  1885
2 27513   3.0479  86.1018 0004071  14.4899 261.7207  1.00269219    10
INTELSAT 906            
1 27513C 02041A   23198.00000000  .00000105  00000-0  00000-0 0  1985
2 27513   3.0755  85.9579 0003516  26.4139 246.3347  1.00272734    19
GALAXY 12 (G-12)        
1 27715C 03013B   23198.00000000  .00000187  00000-0  00000-0 0  1989
2 27715   4.2626  81.4018 0002265  21.9651  54.0878  1.00271813    11
GALAXY 12 (G-12)    [PM]
1 27715C 03013B   23199.55237269  .00000187  00000-0  00000-0 0  1990
2 27715   4.2651  81.4018 0001014  67.0169 209.4305  1.00269277    17
GALAXY 23 (G-23)        
1 27854C 03034A   23198.00000000  .00000103  00000-0  00000-0 0  1984
2 27854   0.4382  94.2845 0002738  29.0785  50.2188  1.00274088    13
GALAXY 23 (G-23)    [PM]
1 27854C 03034A   23204.52928241  .00000103  00000-0  00000-0 0  2043
2 27854   0.4471  94.1488 0002976  30.3939 246.0958  1.00271404    13
GALAXY 13           [PM]
1 27954C 03044A   23194.95490741  .00000138  00000-0  00000-0 0  1945
2 27954   0.0145 321.6710 0001836 161.1807  25.4647  1.00270299    10
GALAXY 13               
1 27954C 03044A   23198.00000000  .00000107  00000-0  00000-0 0  1980
2 27954   0.0001  17.9469 0001823 110.8083  38.7871  1.00271182    18
INTELSAT 10-02          
1 28358C 04022A   23197.90135417  .00000053  00000-0  00000-0 0  1974
2 28358   0.0001  62.3054 0000748  98.7532  96.8881  1.00270775    12
GALAXY 28 (G-28)    [PM]
1 28702C 05022A   23197.63888889 -.00000095  00000-0  00000-0 0  1973
2 28702   0.5398  91.5367 0001277 104.0914 239.5727  1.00271800    18
GALAXY 28 (G-28)        
1 28702C 05022A   23197.90135417 -.00000095  00000-0  00000-0 0  1975
2 28702   0.5418  91.6054 0001259 106.4180 331.9244  1.00271787    11
GALAXY 28 (G-28)    [PM]
1 28702C 05022A   23198.54975694 -.00000095  00000-0  00000-0 0  1986
2 28702   0.5430  91.6553 0001365 107.5744 204.7820  1.00271347    14
GALAXY 14 (G-14)    [PM]
1 28790C 05030A   23192.68055556  .00000245  00000-0  00000-0 0  1927
2 28790   2.2521  87.8667 0001573   7.9489 111.3916  1.00268988    10
GALAXY 14 (G-14)        
1 28790C 05030A   23198.00000000  .00000245  00000-0  00000-0 0  1989
2 28790   2.2665  87.8890 0001111  28.2660 211.2795  1.00272344    18
GALAXY 16 (G-16)    [PM]
1 29236C 06023A   23197.22072917 -.00000037  00000-0  00000-0 0  1976
2 29236   0.0651 253.3076 0002443 243.4743 137.4535  1.00273078    19
GALAXY 16 (G-16)        
1 29236C 06023A   23198.00000000 -.00000037  00000-0  00000-0 0  1988
2 29236   0.0639 250.3084 0002430 247.9443  57.2921  1.00272865    14
GALAXY 17 (G-17)        
1 31307C 07016B   23198.00000000 -.00000116  00000-0  00000-0 0  1981
2 31307   0.2609  94.1967 0002203  65.4524  49.8827  1.00270874    10
GALAXY 17 (G-17)    [PM]
1 31307C 07016B   23198.97278935 -.00000116  00000-0  00000-0 0  1981
2 31307   0.2626  94.3861 0002086  62.8226  43.4837  1.00273515    19
INTELSAT 11 (IS-11) [PM]
1 32253C 07044B   23194.34844907 -.00000178  00000-0  00000-0 0  1942
2 32253   0.7872  91.8627 0002927  31.6829 249.8446  1.00272473    17
INTELSAT 11 (IS-11)     
1 32253C 07044B   23198.00000000 -.00000178  00000-0  00000-0 0  1981
2 32253   0.7965  92.0110 0002934  36.4003 123.1369  1.00271195    13
INTELSAT 11 (IS-11) [PM]
1 32253C 07044B   23199.84815972 -.00000178  00000-0  00000-0 0  1997
2 32253   0.7993  92.0886 0002892  33.9122  72.7028  1.00273134    17
HORIZONS-2              
1 32388C 07063B   23198.00000000 -.00000252  00000-0  00000-0 0  1984
2 32388   0.0066  58.8547 0002192  74.5234  87.3650  1.00271860    19
HORIZONS-2          [PM]
1 32388C 07063B   23199.89482639 -.00000161  00000-0  00000-0 0  1994
2 32388   0.0096  73.9278 0002102  56.9336  53.8872  1.00273459    19
GALAXY 18 (G-18)        
1 32951C 08024A   23198.00000000  .00000116  00000-0  00000-0 0  1986
2 32951   0.0028  60.9412 0002805  63.5638  47.0452  1.00271486    12
GALAXY 18 (G-18)    [PM]
1 32951C 08024A   23200.56458333  .00000118  00000-0  00000-0 0  2003
2 32951   0.0082  82.9362 0002857  43.6385 250.7574  1.00270887    17
INTELSAT 25 (IS-25) [PM]
1 33153C 08034A   23197.86597222 -.00000205  00000-0  00000-0 0  1971
2 33153   0.0058  48.8598 0002667  73.1157  92.6938  1.00272333    16
INTELSAT 25 (IS-25)     
1 33153C 08034A   23198.00000000 -.00000160  00000-0  00000-0 0  1982
2 33153   0.0060  51.4826 0002684  70.6901 140.8792  1.00272266    10
GALAXY 19 (G-19)    [PM]
1 33376C 08045A   23197.71379630 -.00005497  00000-0  00000-0 0  1973
2 33376   0.0000   9.0657 0002939 128.7434 316.4188  1.00272060    13
GALAXY 19 (G-19)        
1 33376C 08045A   23198.00000000 -.00000165  00000-0  00000-0 0  1986
2 33376   0.0001  18.8415 0002937 119.1771  59.5247  1.00272237    17
INTELSAT 14 (IS-14)     
1 36097C 09064A   23198.00000000 -.00000183  00000-0  00000-0 0  1981
2 36097   0.0203  76.6888 0002243  51.9698 120.9041  1.00271448    19
INTELSAT 14 (IS-14) [PM]
1 36097C 09064A   23198.06984954 -.00000188  00000-0  00000-0 0  1981
2 36097   0.0138 330.8832 0002217 157.8847 146.0100  1.00270924    16
INTELSAT 15 (IS-15)     
1 36106C 09067A   23198.00000000 -.00000095  00000-0  00000-0 0  1987
2 36106   0.0114  31.0775 0002004  93.8652 254.7539  1.00271579    14
INTELSAT 15 (IS-15) [PM]
1 36106C 09067A   23200.53359954 -.00000095  00000-0  00000-0 0  2008
2 36106   0.0116  48.1555 0002003  72.4869  93.6465  1.00273392    16
INTELSAT 16 (IS-16)     
1 36397C 10006A   23198.00000000 -.00000154  00000-0  00000-0 0  1980
2 36397   0.0095  33.8851 0002118 109.8269  74.6317  1.00271617    13
INTELSAT 16 (IS-16) [PM]
1 36397C 10006A   23199.93592593 -.00000155  00000-0  00000-0 0  1998
2 36397   0.0097  48.2073 0002015  92.6297  56.3471  1.00273304    10
INTELSAT 17 (IS-17) [PM]
1 37238C 10065B   23197.76077546  .00000032  00000-0  00000-0 0  1974
2 37238   0.0302 201.8039 0002362 287.0855 145.3016  1.00271339    18
INTELSAT 17 (IS-17)     
1 37238C 10065B   23198.00000000  .00000084  00000-0  00000-0 0  1981
2 37238   0.0233 176.1451 0002376 313.5768 230.8257  1.00271274    11
INTELSAT NEW DAWN   [PM]
1 37392C 11016A   23197.21850694  .00000278  00000-0  00000-0 0  1977
2 37392   0.0418 180.4101 0000770  28.0817 196.7261  1.00272254    10
INTELSAT NEW DAWN       
1 37392C 11016A   23198.00000000  .00000245  00000-0  00000-0 0  1988
2 37392   0.0254 102.0051 0001656   8.0602 217.2781  1.00257981    12
INTELSAT NEW DAWN   [PM]
1 37392C 11016A   23198.37274306  .00000216  00000-0  00000-0 0  1988
2 37392   0.0124 174.3829 0000764  87.4174 200.0832  1.00272531    12
INTELSAT 18 (IS-18) [PM]
1 37834C 11056A   23197.95315972  .00000149  00000-0  00000-0 0  1975
2 37834   0.0001  29.3522 0001581  96.1674 332.1162  1.00271849    10
INTELSAT 18 (IS-18)     
1 37834C 11056A   23198.00000000  .00000165  00000-0  00000-0 0  1984
2 37834   0.0001  27.0015 0001565  97.9001 349.6429  1.00271961    11
